satname,norad_id,inclination_deg,eccentricity,mean_motion_rev_per_day,perigee_km,apogee_km,l1,l2
STARLINK-1184,45098,53.0554,0.0004745,15.09034918,535.8654151728988,542.4299183216417,1 45098U 20006BG  26037.35224010  .00027406  00000+0  17237-2 0  9999,2 45098  53.0554  26.8144 0004745  46.9551 313.1836 15.09034918332301
STARLINK-1193,45100,53.0549,0.0004784,15.46776819,422.9070628027757,429.41741631518653,1 45100U 20006BJ  26037.91671296  .00156123  00000+0  30126-2 0  9998,2 45100  53.0549  18.1719 0004784  85.1511 357.7252 15.46776819  5807
STARLINK-1143,45179,53.0489,0.0003744,15.56339764,395.7238114817992,400.797978225467,1 45179U 20012B   26036.63658329  .00055351  00000+0  77312-3 0  9991,2 45179  53.0489 125.7674 0003744 312.4671  47.6022 15.56339764330928
STARLINK-1202,45183,53.1586,0.0001195,15.29851143,475.4377914018705,477.0759915419321,1 45183U 20012F   26037.85990566  .00185179  00000+0  61763-2 0  9997,2 45183  53.1586 182.4511 0001195  64.0110 296.1014 15.29851143330234
STARLINK-1216,45185,53.1608,0.0001378,15.30186865,474.3098911227198,476.1986857618149,1 45185U 20012H   26037.71982605  .00000543  00000+0  30470-4 0  9993,2 45185  53.1608 183.0797 0001378  91.3142 268.8016 15.30186865330158
STARLINK-1225,45187,53.163,0.0001139,15.30183345,474.48419623342215,476.04540116316457,1 45187U 20012K   26037.71673332 -.00002599  00000+0 -75714-4 0  9994,2 45187  53.1630 183.5353 0001139  73.9726 286.1400 15.30183345330191
STARLINK-1230,45189,53.1616,0.0001143,15.30190301,474.46068758641286,476.0273704896499,1 45189U 20012M   26037.66089757  .00002433  00000+0  94273-4 0  9998,2 45189  53.1616 183.8518 0001143 100.1470 259.9660 15.30190301327414
STARLINK-1234,45190,53.0453,0.0007588,15.55121236,396.6556178027731,406.9448505493592,1 45190U 20012N   26037.22952382  .00107665  00000+0  15546-2 0  9992,2 45190  53.0453 118.2217 0007588 218.9610 141.0854 15.55121236330974
STARLINK-1269,45197,53.1623,0.0001158,15.30198243,474.42669673250657,476.01393428677875,1 45197U 20012V   26037.65772184  .00002244  00000+0  87878-4 0  9992,2 45197  53.1623 183.7271 0001158 109.7754 250.3371 15.30198243330165
STARLINK-1154,45198,53.0511,0.0003642,15.41452949,439.3365316195004,444.30418856058986,1 45198U 20012W   26037.60684625  .00102310  00000+0  23843-2 0  9995,2 45198  53.0511 157.7192 0003642 338.9565  21.1288 15.41452949330495
STARLINK-1199,45201,53.0536,0.0001247,15.06391594,546.3737270595375,548.1009154152543,1 45201U 20012Z   26037.61773759  .00000077  00000+0  24032-4 0  9998,2 45201  53.0536 166.1077 0001247  70.0806 290.0317 15.06391594330437
STARLINK-1209,45206,53.0481,0.000924,15.455546,423.4584904786834,436.039463764404,1 45206U 20012AE  26037.91671296  .00068311  00000+0  13937-2 0  9994,2 45206  53.0481 120.7005 0009240 198.7471 358.6937 15.45554600  5873
STARLINK-1210,45207,53.0107,0.0007411,15.92387236,290.6586220527579,300.550441751343,1 45207U 20012AF  26037.91671296  .00377138  65561-4  10944-2 0  9998,2 45207  53.0107  58.3046 0007411  35.6595 168.8214 15.92387236  5997
STARLINK-1231,45212,53.0478,0.0001404,15.18635719,508.99576578676806,510.9299442260535,1 45212U 20012AL  26037.63876776  .00055435  00000+0  26393-2 0  9993,2 45212  53.0478 158.0926 0001404 303.7861  56.3000 15.18635719330502
STARLINK-1271,45217,53.056,0.0001475,15.06399682,546.1910435065956,548.2340216187013,1 45217U 20012AR  26037.66934274  .00003613  00000+0  26135-3 0  9995,2 45217  53.0560 165.8770 0001475  88.8058 271.3100 15.06399682330445
STARLINK-1191,45222,53.1581,0.0001271,15.31023782,471.88575922784185,473.62725635752395,1 45222U 20012AW  26037.65498233 -.00001260  00000+0 -29560-4 0  9994,2 45222  53.1581 143.0890 0001271 108.4771 251.6368 15.31023782330766
STARLINK-1212,45223,53.0523,0.0002868,15.42692629,436.21135824169505,440.12118979967454,1 45223U 20012AX  26037.91671296  .00068778  00000+0  15478-2 0  9992,2 45223  53.0523 137.1042 0002868 345.1268  61.8650 15.42692629  5857
STARLINK-1215,45225,53.1585,0.0001203,15.30207663,474.367733676615,476.01664467953196,1 45225U 20012AZ  26037.91671296 -.00000944  00000+0 -19746-4 0  9991,2 45225  53.1585 141.2427 0001203  81.0755  52.8083 15.30207663  5789
STARLINK-1221,45227,53.0659,0.0001787,15.40715314,442.77782592858875,445.2160565991953,1 45227U 20012BB  26037.07362938  .00029375  00000+0  71526-3 0  9990,2 45227  53.0659  59.2901 0001787 295.7078  64.3742 15.40715314331832
STARLINK-1222,45228,53.0553,0.0001624,15.46932508,424.6007479795617,426.81063608593377,1 45228U 20012BC  26037.57409272  .00055706  00000+0  10888-2 0  9999,2 45228  53.0553 131.7398 0001624  27.3210 332.7882 15.46932508330804
STARLINK-1226,45229,53.1609,0.0001623,15.31024309,471.64303591579755,473.86683543811796,1 45229U 20012BD  26037.60631082 -.00000327  00000+0  11803-5 0  9991,2 45229  53.1609 143.1162 0001623  76.8616 283.2566 15.31024309330659
STARLINK-1227,45230,53.1596,0.0001308,15.31038785,471.815661052251,473.6078430857924,1 45230U 20012BE  26037.56868704  .00003724  00000+0  13437-3 0  9997,2 45230  53.1596 143.6061 0001308  75.2094 284.9052 15.31038785330765
STARLINK-1246,45235,53.1587,0.0001493,15.29355035,476.7155618100078,478.76272642664026,1 45235U 20012BK  26037.66589660  .00003031  00000+0  11734-3 0  9993,2 45235  53.1587 183.3371 0001493  83.0918 277.0252 15.29355035330225
STARLINK-1270,45237,53.0519,0.0002253,15.41927693,438.88420315698204,441.9566451323017,1 45237U 20012BM  26037.58289519  .00100862  00000+0  23145-2 0  9994,2 45237  53.0519 135.5457 0002253 282.3090  77.7662 15.41927693330864
STARLINK-1279,45360,53.0463,0.0008016,15.51092316,408.09142074017655,418.97983029340503,1 45360U 20019A   26037.91671296  .00142768  00000+0  23713-2 0  9994,2 45360  53.0463 247.3186 0008016 115.6047 357.6041 15.51092316  5791
STARLINK-1301,45361,53.0457,0.0010147,15.57037769,389.36159184936423,403.1095034976124,1 45361U 20019B   26037.80542011  .00124139  00000+0  16639-2 0  9996,2 45361  53.0457 254.8087 0010147 103.2087 257.0057 15.57037769325784
STARLINK-1262,45366,53.0542,0.000147,15.06422094,546.125827553974,548.1618601220616,1 45366U 20019G   26036.97820914  .00005155  00000+0  36447-3 0  9995,2 45366  53.0542 308.9758 0001470  93.4519 266.6639 15.06422094324952
STARLINK-1273,45367,53.0532,0.0001827,15.40316285,443.9284835326089,446.4217217749183,1 45367U 20019H   26037.00002315  .00033695  00000+0  82939-3 0  9995,2 45367  53.0532 305.1386 0001827 104.3292  15.4558 15.40316285  5727
STARLINK-1276,45368,53.0534,0.0001547,15.06418445,546.0836845700505,548.2263699232808,1 45368U 20019J   26037.16988288  .00003023  00000+0  22166-3 0  9993,2 45368  53.0534 308.1153 0001547 107.1581 252.9577 15.06418445324980
STARLINK-1277,45369,53.0545,0.0001743,15.43987321,433.16783779087837,435.54267259103835,1 45369U 20019K   26037.79482986  .00027000  00000+0  59039-3 0  9997,2 45369  53.0545 299.9764 0001743  51.4802 308.6359 15.43987321325155
STARLINK-1281,45370,53.0529,0.0001425,15.06420741,546.1611373787455,548.1348436010348,1 45370U 20019L   26037.15883672  .00014051  00000+0  95979-3 0  9991,2 45370  53.0529 308.1669 0001425  91.9761 268.1391 15.06420741324989
STARLINK-1300,45374,53.0546,0.0001428,15.06415425,546.17534991508,548.1532159614881,1 45374U 20019Q   26036.98190368  .00008415  00000+0  58294-3 0  9994,2 45374  53.0546 308.9602 0001428  94.3226 265.7926 15.06415425324950
STARLINK-1302,45375,53.0541,0.0001797,15.44158481,432.62771763634373,435.0759464225748,1 45375U 20019R   26036.99476216  .00097012  00000+0  20668-2 0  9999,2 45375  53.0541 303.2598 0001797 120.3924 239.7260 15.44158481325032
STARLINK-1304,45376,53.053,0.0005562,15.43069085,433.26698802759984,440.8482104998202,1 45376U 20019S   26037.86398546  .00083127  00000+0  18412-2 0  9992,2 45376  53.0530 296.4088 0005562 116.1700 243.9877 15.43069085325207
STARLINK-1305,45377,53.048,0.0007207,15.46906599,420.8780789411785,430.6852473022018,1 45377U 20019T   26037.11182762  .00105585  00000+0  20432-2 0  9990,2 45377  53.0480 283.7581 0007207  71.3508 288.8280 15.46906599325327
STARLINK-1319,45379,53.0493,0.0007195,15.52558828,404.3745807814421,414.14164234698274,1 45379U 20019V   26037.09677721  .00101227  00000+0  16063-2 0  9997,2 45379  53.0493 283.0000 0007195  89.6812 270.5021 15.52558828325335
STARLINK-1266,45383,53.0521,0.0002051,15.41746049,439.5573792913892,442.354571229841,1 45383U 20019Z   26037.83112251  .00020463  00000+0  48501-3 0  9991,2 45383  53.0521 279.5193 0002051 111.4516 248.6707 15.41746049325436
STARLINK-1267,45384,53.0525,0.0007607,15.4437016,428.0479548674848,438.4107676495032,1 45384U 20019AA  26037.80273310  .00088565  00000+0  18746-2 0  9997,2 45384  53.0525 274.5282 0007607 128.3382 231.8309 15.44370160325505
STARLINK-1272,45386,53.0468,0.0007364,15.49947414,411.87590695074687,421.8836076308844,1 45386U 20019AC  26037.84588111  .00106376  00000+0  18509-2 0  9999,2 45386  53.0468 258.5058 0007364  96.2872 263.8975 15.49947414325739
STARLINK-1274,45387,53.0304,0.0010507,15.42683743,431.03053166527025,445.3543663694345,1 45387U 20019AD  26037.80075554  .00096383  00000+0  21545-2 0  9998,2 45387  53.0304 250.1037 0010507 128.2563 231.9389 15.42683743325842
STARLINK-1280,45388,53.0462,0.0007488,15.58752651,386.19709782353584,396.3349557964857,1 45388U 20019AE  26037.91671296  .00117437  00000+0  14790-2 0  9994,2 45388  53.0462 272.9364 0007488  94.0487  98.3481 15.58752651  5915
STARLINK-1283,45389,53.0484,0.0012718,15.49691156,408.9859674508971,426.271677396815,1 45389U 20019AF  26037.82960646  .00104008  00000+0  18232-2 0  9990,2 45389  53.0484 258.7493 0012718 123.5150 236.7074 15.49691156325735
STARLINK-1284,45390,53.0515,0.0003259,15.46279027,425.4044981847219,429.84049222369504,1 45390U 20019AG  26037.83624133  .00105159  00000+0  20810-2 0  9994,2 45390  53.0515 278.8015 0003259 116.5419 243.5922 15.46279027325447
